ONEWEB-0670             
1 55829U 23029AK  23352.39735085  .00005556  00000+0  14949-1 0  9998
2 55829  87.8985 111.2093 0002142 164.5221 195.5975 13.14476326 40331
ONEWEB-0671             
1 55830U 23029AL  23351.91164891  .00000048  00000+0  88191-4 0  9992
2 55830  87.9195 126.5628 0001270 113.0565 247.0701 13.19728455 38572
ONEWEB-0672             
1 55831U 23029AM  23352.28486435  .00000085  00000+0  17662-3 0  9990
2 55831  87.9204  95.9503 0001980 100.4387 259.6970 13.20777522 41454
ONEWEB-0673             
1 55832U 23029AN  23351.88795982  .00000105  00000+0  23048-3 0  9994
2 55832  87.9195 126.5359 0000849 109.7335 250.3889 13.19722486 38575
ONEWEB-0674             
1 55833U 23029AP  23351.83279215 -.00000134  00000+0 -39607-3 0  9998
2 55833  87.8979 111.3356 0000920 108.2085 251.9145 13.14501054 39552
ONEWEB-0675             
1 55834U 23029AQ  23351.90376181  .00000048  00000+0  87500-4 0  9995
2 55834  87.9200 126.5578 0002040 106.0578 254.0780 13.19723937 39306
ONEWEB-0720             
1 55835U 23029AR  23351.89586154  .00000144  00000+0  32613-3 0  9998
2 55835  87.9199 126.5623 0001625 128.3791 231.7488 13.19726980 39204
ONEWEB-0537             
1 56046U 23043A   23352.58334491  .00022478  00000+0  58645-1 0  9996
2 56046  87.9151  50.2071 0002215  96.0132 132.7522 13.16565692 39929
